start=new Date('2022-02-13T00:00:00.000Z').valueOf();
sats=[{"MEAN_MOTION":"15.05554990","ELEMENT_SET_NO":"999","PERIOD":"95.646","INCLINATION":"53.0547","SITE":"AFETR","REV_AT_EPOCH":"4194","TLE_LINE2":"2 48594  53.0547 302.7961 0001464  96.9907  92.3543 15.05554990 41946","CENTER_NAME":"EARTH","SEMIMAJOR_AXIS":"6927.940","MEAN_ANOMALY":"92.3543","REF_FRAME":"TEME","LAUNCH_DATE":"2021-05-15","TIME_SYSTEM":"UTC","EPHEMERIS_TYPE":"0","PERIAPSIS":"548.790","TLE_LINE1":"1 48594U 21041AT  22043.58334491 -.00022955  00000-0 -15625-2 0  9992","EPOCH":"2022-02-12T14:00:01.000224","ECCENTRICITY":"0.00014640","ARG_OF_PERICENTER":"96.9907","OBJECT_NAME":"STARLINK-2251","APOAPSIS":"550.819","FILE":"3298526","CLASSIFICATION_TYPE":"U","OBJECT_TYPE":"PAYLOAD","COUNTRY_CODE":"US","MEAN_ELEMENT_THEORY":"SGP4","RA_OF_ASC_NODE":"302.7961","NORAD_CAT_ID":"48594","DECAY_DATE":null,"MEAN_MOTION_DOT":"-0.00022955","RCS_SIZE":"LARGE","GP_ID":"195824188","MEAN_MOTION_DDOT":"0.0000000000000","BSTAR":"-0.00156250000000","OBJECT_ID":"2021-041AT"},{"OBJECT_ID":"2021-041AU","BSTAR":"0.00024591000000","MEAN_MOTION_DDOT":"0.0000000000000","DECAY_DATE":null,"NORAD_CAT_ID":"48595","GP_ID":"195823431","RCS_SIZE":"LARGE","MEAN_MOTION_DOT":"0.00003386","MEAN_ELEMENT_THEORY":"SGP4","COUNTRY_CODE":"US","OBJECT_TYPE":"PAYLOAD","RA_OF_ASC_NODE":"333.2616","APOAPSIS":"548.293","OBJECT_NAME":"STARLINK-2252","ARG_OF_PERICENTER":"74.5127","CLASSIFICATION_TYPE":"U","FILE":"3298493","EPOCH":"2022-02-12T12:41:57.892128","TLE_LINE1":"1 48595U 21041AU  22043.52914227  .00003386  00000-0  24591-3 0  9996","EPHEMERIS_TYPE":"0","PERIAPSIS":"545.981","ECCENTRICITY":"0.00016690","REF_FRAME":"TEME","LAUNCH_DATE":"2021-05-15","TLE_LINE2":"2 48595  53.0563 333.2616 0001669  74.5127 285.6047 15.06424964 42332","SEMIMAJOR_AXIS":"6925.272","CENTER_NAME":"EARTH","MEAN_ANOMALY":"285.6047","TIME_SYSTEM":"UTC","PERIOD":"95.591","ELEMENT_SET_NO":"999","MEAN_MOTION":"15.06424964","REV_AT_EPOCH":"4233","SITE":"AFETR","INCLINATION":"53.0563"},{"ARG_OF_PERICENTER":"71.4563","OBJECT_NAME":"STARLINK-2253","APOAPSIS":"548.296","FILE":"3299020","CLASSIFICATION_TYPE":"U","PERIAPSIS":"546.127","EPHEMERIS_TYPE":"0","TLE_LINE1":"1 48596U 21041AV  22043.88298877 -.00001594  00000-0 -88101-4 0  9991","EPOCH":"2022-02-12T21:11:30.229728","ECCENTRICITY":"0.00015660","SEMIMAJOR_AXIS":"6925.346","TLE_LINE2":"2 48596  53.0567 331.6704 0001566  71.4563 288.6596 15.06400821 41576","MEAN_ANOMALY":"288.6596","CENTER_NAME":"EARTH","LAUNCH_DATE":"2021-05-15","REF_FRAME":"TEME","TIME_SYSTEM":"UTC","MEAN_MOTION":"15.06400821","ELEMENT_SET_NO":"999","PERIOD":"95.592","SITE":"AFETR","INCLINATION":"53.0567","REV_AT_EPOCH":"4157","OBJECT_ID":"2021-041AV","BSTAR":"-0.00008810100000","MEAN_MOTION_DDOT":"0.0000000000000","NORAD_CAT_ID":"48596","DECAY_DATE":null,"MEAN_MOTION_DOT":"-0.00001594","GP_ID":"195832910","RCS_SIZE":"LARGE","OBJECT_TYPE":"PAYLOAD","COUNTRY_CODE":"US","MEAN_ELEMENT_THEORY":"SGP4","RA_OF_ASC_NODE":"331.6704"},{"BSTAR":"-0.00001836400000","OBJECT_ID":"2021-041AW","MEAN_MOTION_DDOT":"0.0000000000000","GP_ID":"195833248","RCS_SIZE":"LARGE","MEAN_MOTION_DOT":"-0.00000555","NORAD_CAT_ID":"48597","DECAY_DATE":null,"RA_OF_ASC_NODE":"331.9429","COUNTRY_CODE":"US","OBJECT_TYPE":"PAYLOAD","MEAN_ELEMENT_THEORY":"SGP4","FILE":"3299020","CLASSIFICATION_TYPE":"U","ARG_OF_PERICENTER":"70.2528","OBJECT_NAME":"STARLINK-2255","APOAPSIS":"548.330","ECCENTRICITY":"0.00016210","TLE_LINE1":"1 48597U 21041AW  22043.82401402 -.00000555  00000-0 -18364-4 0  9996","EPHEMERIS_TYPE":"0","PERIAPSIS":"546.085","EPOCH":"2022-02-12T19:46:34.811328","TIME_SYSTEM":"UTC","REF_FRAME":"TEME","LAUNCH_DATE":"2021-05-15","CENTER_NAME":"EARTH","TLE_LINE2":"2 48597  53.0555 331.9429 0001621  70.2528 289.8636 15.06401893 42378","SEMIMAJOR_AXIS":"6925.343","MEAN_ANOMALY":"289.8636","REV_AT_EPOCH":"4237","SITE":"AFETR","INCLINATION":"53.0555","MEAN_MOTION":"15.06401893","PERIOD":"95.592","ELEMENT_SET_NO":"999"},{"OBJECT_TYPE":"PAYLOAD","COUNTRY_CODE":"US","MEAN_ELEMENT_THEORY":"SGP4","RA_OF_ASC_NODE":"333.4021","NORAD_CAT_ID":"48598","DECAY_DATE":null,"MEAN_MOTION_DOT":"0.00001008","RCS_SIZE":"LARGE","GP_ID":"195824691","MEAN_MOTION_DDOT":"0.0000000000000","OBJECT_ID":"2021-041AX","BSTAR":"0.00008653000000","MEAN_MOTION":"15.06419690","ELEMENT_SET_NO":"999","PERIOD":"95.591","SITE":"AFETR","INCLINATION":"53.0548","REV_AT_EPOCH":"4151","CENTER_NAME":"EARTH","TLE_LINE2":"2 48598  53.0548 333.4021 0001605  64.8379 295.2777 15.06419690 41517","SEMIMAJOR_AXIS":"6925.288","MEAN_ANOMALY":"295.2777","REF_FRAME":"TEME","LAUNCH_DATE":"2021-05-15","TIME_SYSTEM":"UTC","PERIAPSIS":"546.042","EPHEMERIS_TYPE":"0","TLE_LINE1":"1 48598U 21041AX  22043.49596314  .00001008  00000-0  86530-4 0  9999","EPOCH":"2022-02-12T11:54:11.215296","ECCENTRICITY":"0.00016050","ARG_OF_PERICENTER":"64.8379","OBJECT_NAME":"STARLINK-2256","APOAPSIS":"548.265","FILE":"3298526","CLASSIFICATION_TYPE":"U"},{"APOAPSIS":"548.186","ARG_OF_PERICENTER":"71.1291","OBJECT_NAME":"STARLINK-2274","CLASSIFICATION_TYPE":"U","FILE":"3299020","EPOCH":"2022-02-12T20:29:42.042048","PERIAPSIS":"546.240","EPHEMERIS_TYPE":"0","TLE_LINE1":"1 48599U 21041AY  22043.85395882 -.00005812  00000-0 -37161-3 0  9991","ECCENTRICITY":"0.00014050","TLE_LINE2":"2 48599  53.0551 306.7856 0001405  71.1291 288.9850 15.06400250 42731","SEMIMAJOR_AXIS":"6925.348","MEAN_ANOMALY":"288.9850","CENTER_NAME":"EARTH","REF_FRAME":"TEME","LAUNCH_DATE":"2021-05-15","TIME_SYSTEM":"UTC","ELEMENT_SET_NO":"999","PERIOD":"95.592","MEAN_MOTION":"15.06400250","SITE":"AFETR","INCLINATION":"53.0551","REV_AT_EPOCH":"4273","OBJECT_ID":"2021-041AY","BSTAR":"-0.00037161000000","MEAN_MOTION_DDOT":"0.0000000000000","DECAY_DATE":null,"NORAD_CAT_ID":"48599","MEAN_MOTION_DOT":"-0.00005812","GP_ID":"195833243","RCS_SIZE":"LARGE","MEAN_ELEMENT_THEORY":"SGP4","OBJECT_TYPE":"PAYLOAD","COUNTRY_CODE":"US","RA_OF_ASC_NODE":"306.7856"},{"MEAN_MOTION_DDOT":"0.0000000000000","BSTAR":"-0.00006506200000","OBJECT_ID":"2021-041AZ","RA_OF_ASC_NODE":"322.2136","MEAN_ELEMENT_THEORY":"SGP4","OBJECT_TYPE":"PAYLOAD","COUNTRY_CODE":"US","MEAN_MOTION_DOT":"-0.00001251","GP_ID":"195833246","RCS_SIZE":"LARGE","DECAY_DATE":null,"NORAD_CAT_ID":"48600","ECCENTRICITY":"0.00022840","EPOCH":"2022-02-12T18:12:21.593664","PERIAPSIS":"545.586","EPHEMERIS_TYPE":"0","TLE_LINE1":"1 48600U 21041AZ  22043.75858326 -.00001251  00000-0 -65062-4 0  9995","FILE":"3299020","CLASSIFICATION_TYPE":"U","APOAPSIS":"548.749","ARG_OF_PERICENTER":"68.5936","OBJECT_NAME":"STARLINK-2275","INCLINATION":"53.0554","SITE":"AFETR","REV_AT_EPOCH":"4250","ELEMENT_SET_NO":"999","PERIOD":"95.591","MEAN_MOTION":"15.06415034","TIME_SYSTEM":"UTC","TLE_LINE2":"2 48600  53.0554 322.2136 0002284  68.5936 291.5297 15.06415034 42509","SEMIMAJOR_AXIS":"6925.302","CENTER_NAME":"EARTH","MEAN_ANOMALY":"291.5297","LAUNCH_DATE":"2021-05-15","REF_FRAME":"TEME"},{"TIME_SYSTEM":"UTC","LAUNCH_DATE":"2021-05-15","REF_FRAME":"TEME","CENTER_NAME":"EARTH","TLE_LINE2":"2 48602  53.0519 306.6434 0001490  51.6072 308.5051 15.06416274 42730","SEMIMAJOR_AXIS":"6925.299","MEAN_ANOMALY":"308.5051","REV_AT_EPOCH":"4273","INCLINATION":"53.0519","SITE":"AFETR","PERIOD":"95.591","ELEMENT_SET_NO":"999","MEAN_MOTION":"15.06416274","FILE":"3299020","CLASSIFICATION_TYPE":"U","APOAPSIS":"548.196","ARG_OF_PERICENTER":"51.6072","OBJECT_NAME":"STARLINK-2713","ECCENTRICITY":"0.00014900","EPOCH":"2022-02-12T21:17:25.705248","TLE_LINE1":"1 48602U 21041BB  22043.88710307 -.00001324  00000-0 -69935-4 0  9991","PERIAPSIS":"546.132","EPHEMERIS_TYPE":"0","RCS_SIZE":"LARGE","GP_ID":"195833249","MEAN_MOTION_DOT":"-0.00001324","DECAY_DATE":null,"NORAD_CAT_ID":"48602","RA_OF_ASC_NODE":"306.6434","MEAN_ELEMENT_THEORY":"SGP4","COUNTRY_CODE":"US","OBJECT_TYPE":"PAYLOAD","OBJECT_ID":"2021-041BB","BSTAR":"-0.00006993500000","MEAN_MOTION_DDOT":"0.0000000000000"},{"PERIOD":"95.593","ELEMENT_SET_NO":"999","MEAN_MOTION":"15.06381557","REV_AT_EPOCH":"4280","SITE":"AFETR","INCLINATION":"53.0538","LAUNCH_DATE":"2021-05-15","REF_FRAME":"TEME","TLE_LINE2":"2 48603  53.0538 301.7368 0001500  67.0491 293.0657 15.06381557 42805","MEAN_ANOMALY":"293.0657","SEMIMAJOR_AXIS":"6925.405","CENTER_NAME":"EARTH","TIME_SYSTEM":"UTC","EPOCH":"2022-02-12T20:47:34.507104","TLE_LINE1":"1 48603U 21041BC  22043.86637161 -.00016246  00000-0 -10748-2 0  9991","PERIAPSIS":"546.231","EPHEMERIS_TYPE":"0","ECCENTRICITY":"0.00015000","APOAPSIS":"548.309","ARG_OF_PERICENTER":"67.0491","OBJECT_NAME":"STARLINK-2714","FILE":"3299020","CLASSIFICATION_TYPE":"U","MEAN_ELEMENT_THEORY":"SGP4","COUNTRY_CODE":"US","OBJECT_TYPE":"PAYLOAD","RA_OF_ASC_NODE":"301.7368","DECAY_DATE":null,"NORAD_CAT_ID":"48603","GP_ID":"195833241","RCS_SIZE":"LARGE","MEAN_MOTION_DOT":"-0.00016246","MEAN_MOTION_DDOT":"0.0000000000000","OBJECT_ID":"2021-041BC","BSTAR":"-0.00107480000000"},{"APOAPSIS":"548.270","OBJECT_NAME":"STARLINK-2757","ARG_OF_PERICENTER":"43.2275","FILE":"3299020","CLASSIFICATION_TYPE":"U","EPOCH":"2022-02-12T20:50:17.097216","TLE_LINE1":"1 48604U 21041BD  22043.86825344 -.00004823  00000-0 -30524-3 0  9997","EPHEMERIS_TYPE":"0","PERIAPSIS":"546.261","ECCENTRICITY":"0.00014500","REF_FRAME":"TEME","LAUNCH_DATE":"2021-05-15","TLE_LINE2":"2 48604  53.0560 331.7352 0001450  43.2275 316.8827 15.06383037 42388","SEMIMAJOR_AXIS":"6925.401","MEAN_ANOMALY":"316.8827","CENTER_NAME":"EARTH","TIME_SYSTEM":"UTC","PERIOD":"95.593","ELEMENT_SET_NO":"999","MEAN_MOTION":"15.06383037","REV_AT_EPOCH":"4238","INCLINATION":"53.0560","SITE":"AFETR","BSTAR":"-0.00030524000000","OBJECT_ID":"2021-041BD","MEAN_MOTION_DDOT":"0.0000000000000","DECAY_DATE":null,"NORAD_CAT_ID":"48604","GP_ID":"195832914","RCS_SIZE":"LARGE","MEAN_MOTION_DOT":"-0.00004823","MEAN_ELEMENT_THEORY":"SGP4","COUNTRY_CODE":"US","OBJECT_TYPE":"PAYLOAD","RA_OF_ASC_NODE":"331.7352"}];
